STARLINK-31319          
1 59457U 24068C   24199.42999048 -.00002681  00000+0 -56975-4 0  9994
2 59457  43.0003 208.4541 0001364 268.7824  91.2876 15.40685655 16440
STARLINK-31625          
1 59458U 24068D   24200.16985385  .00001441  00000+0  41763-4 0  9998
2 59458  42.9989 203.6820 0001306 270.7645  89.3062 15.40693970 16577
STARLINK-31631          
1 59459U 24068E   24199.31153808 -.00001093  00000+0 -18930-4 0  9995
2 59459  43.0005 209.2868 0000945 274.3203  85.7546 15.40685673 16423
STARLINK-31620          
1 59460U 24068F   24200.13638861  .00001743  00000+0  48987-4 0  9992
2 59460  42.9993 204.2939 0001438 270.1079  89.9613 15.40692201 16556
STARLINK-31482          
1 59461U 24068G   24200.25002315  .00589470  14817-3  15444-2 0  9998
2 59461  42.9844 173.7606 0003748 217.0339 279.7411 15.94042882 16905
STARLINK-31511          
1 59462U 24068H   24200.05587412  .00000901  00000+0  28830-4 0  9990
2 59462  42.9993 204.5442 0001598 257.4156 102.6522 15.40696969 16547
STARLINK-31364          
1 59463U 24068J   24200.01792498  .00000142  00000+0  10658-4 0  9995
2 59463  43.0020 205.1241 0001171 262.9915  97.0808 15.40698791 16534
STARLINK-31597          
1 59464U 24068K   24199.51708324  .00001232  00000+0  36758-4 0  9993
2 59464  42.9996 207.3787 0001245 270.8029  89.2685 15.40697526 16418
STARLINK-31621          
1 59465U 24068L   24200.17208758 -.00002942  00000+0 -63238-4 0  9999
2 59465  43.0014 203.7039 0001375 277.2770  82.7930 15.40682503 16555
STARLINK-31462          
1 59466U 24068M   24200.16089529  .00027939  00000+0  67359-3 0  9990
2 59466  42.9984 203.5908 0001398 258.7779 101.2920 15.40702091 16563
STARLINK-31592          
1 59467U 24068N   24199.34051974  .00000383  00000+0  16430-4 0  9990
2 59467  42.9994 208.6347 0001315 263.8323  96.2384 15.40690675 16436
STARLINK-31267          
1 59468U 24068P   24199.09688163  .00002654  00000+0  70782-4 0  9992
2 59468  42.9981 210.2473 0001493 262.3507  97.7179 15.40693272 16396
STARLINK-31381          
1 59469U 24068Q   24200.13190878 -.00003325  00000+0 -72409-4 0  9998
2 59469  42.9989 204.2565 0001331 261.3164  98.7541 15.40683682 16555
STARLINK-31546          
1 59470U 24068R   24200.01568589  .00002289  00000+0  62029-4 0  9998
2 59470  42.9996 205.1060 0001339 266.2243  93.8460 15.40702044 16533
STARLINK-31575          
1 59471U 24068S   24200.00897868  .00029556  00000+0  71294-3 0  9992
2 59471  42.9988 205.0552 0001027 269.5436  90.5303 15.40663247 16535
STARLINK-31375          
1 59472U 24068T   24200.15865586  .00036668  00000+0  88045-3 0  9995
2 59472  42.9987 203.5889 0001467 257.2635 102.8058 15.40713081 16563
STARLINK-31610          
1 59473U 24068U   24199.38967650 -.00000642  00000+0 -81226-5 0  9994
2 59473  43.0004 208.1403 0001180 271.0534  89.0187 15.40681236 16445
