[{"OBJECT_NAME":"STARLINK-31319","OBJECT_ID":"2024-068C","EPOCH":"2024-07-17T10:19:11.177472","MEAN_MOTION":15.40685655,"ECCENTRICITY":0.0001364,"INCLINATION":43.0003,"RA_OF_ASC_NODE":208.4541,"ARG_OF_PERICENTER":268.7824,"MEAN_ANOMALY":91.2876,"EPHEMERIS_TYPE":0,"CLASSIFICATION_TYPE":"U","NORAD_CAT_ID":59457,"ELEMENT_SET_NO":999,"REV_AT_EPOCH":1644,"BSTAR":-5.6975e-5,"MEAN_MOTION_DOT":-2.681e-5,"MEAN_MOTION_DDOT":0},{"OBJECT_NAME":"STARLINK-31625","OBJECT_ID":"2024-068D","EPOCH":"2024-07-18T04:04:35.372640","MEAN_MOTION":15.4069397,"ECCENTRICITY":0.0001306,"INCLINATION":42.9989,"RA_OF_ASC_NODE":203.682,"ARG_OF_PERICENTER":270.7645,"MEAN_ANOMALY":89.3062,"EPHEMERIS_TYPE":0,"CLASSIFICATION_TYPE":"U","NORAD_CAT_ID":59458,"ELEMENT_SET_NO":999,"REV_AT_EPOCH":1657,"BSTAR":4.1763e-5,"MEAN_MOTION_DOT":1.441e-5,"MEAN_MOTION_DDOT":0},{"OBJECT_NAME":"STARLINK-31631","OBJECT_ID":"2024-068E","EPOCH":"2024-07-17T07:28:36.890112","MEAN_MOTION":15.40685673,"ECCENTRICITY":9.45e-5,"INCLINATION":43.0005,"RA_OF_ASC_NODE":209.2868,"ARG_OF_PERICENTER":274.3203,"MEAN_ANOMALY":85.7546,"EPHEMERIS_TYPE":0,"CLASSIFICATION_TYPE":"U","NORAD_CAT_ID":59459,"ELEMENT_SET_NO":999,"REV_AT_EPOCH":1642,"BSTAR":-1.893e-5,"MEAN_MOTION_DOT":-1.093e-5,"MEAN_MOTION_DDOT":0},{"OBJECT_NAME":"STARLINK-31620","OBJECT_ID":"2024-068F","EPOCH":"2024-07-18T03:16:23.975904","MEAN_MOTION":15.40692201,"ECCENTRICITY":0.0001438,"INCLINATION":42.9993,"RA_OF_ASC_NODE":204.2939,"ARG_OF_PERICENTER":270.1079,"MEAN_ANOMALY":89.9613,"EPHEMERIS_TYPE":0,"CLASSIFICATION_TYPE":"U","NORAD_CAT_ID":59460,"ELEMENT_SET_NO":999,"REV_AT_EPOCH":1655,"BSTAR":4.8987e-5,"MEAN_MOTION_DOT":1.743e-5,"MEAN_MOTION_DDOT":0},{"OBJECT_NAME":"STARLINK-31482","OBJECT_ID":"2024-068G","EPOCH":"2024-07-18T06:00:02.000160","MEAN_MOTION":15.94042882,"ECCENTRICITY":0.0003748,"INCLINATION":42.9844,"RA_OF_ASC_NODE":173.7606,"ARG_OF_PERICENTER":217.0339,"MEAN_ANOMALY":279.7411,"EPHEMERIS_TYPE":0,"CLASSIFICATION_TYPE":"U","NORAD_CAT_ID":59461,"ELEMENT_SET_NO":999,"REV_AT_EPOCH":1690,"BSTAR":0.0015444,"MEAN_MOTION_DOT":0.0058947,"MEAN_MOTION_DDOT":0.00014817},{"OBJECT_NAME":"STARLINK-31511","OBJECT_ID":"2024-068H","EPOCH":"2024-07-18T01:20:27.523968","MEAN_MOTION":15.40696969,"ECCENTRICITY":0.0001598,"INCLINATION":42.9993,"RA_OF_ASC_NODE":204.5442,"ARG_OF_PERICENTER":257.4156,"MEAN_ANOMALY":102.6522,"EPHEMERIS_TYPE":0,"CLASSIFICATION_TYPE":"U","NORAD_CAT_ID":59462,"ELEMENT_SET_NO":999,"REV_AT_EPOCH":1654,"BSTAR":2.883e-5,"MEAN_MOTION_DOT":9.01e-6,"MEAN_MOTION_DDOT":0},{"OBJECT_NAME":"STARLINK-31364","OBJECT_ID":"2024-068J","EPOCH":"2024-07-18T00:25:48.718272","MEAN_MOTION":15.40698791,"ECCENTRICITY":0.0001171,"INCLINATION":43.002,"RA_OF_ASC_NODE":205.1241,"ARG_OF_PERICENTER":262.9915,"MEAN_ANOMALY":97.0808,"EPHEMERIS_TYPE":0,"CLASSIFICATION_TYPE":"U","NORAD_CAT_ID":59463,"ELEMENT_SET_NO":999,"REV_AT_EPOCH":1653,"BSTAR":1.0658e-5,"MEAN_MOTION_DOT":1.42e-6,"MEAN_MOTION_DDOT":0},{"OBJECT_NAME":"STARLINK-31597","OBJECT_ID":"2024-068K","EPOCH":"2024-07-17T12:24:35.991936","MEAN_MOTION":15.40697526,"ECCENTRICITY":0.0001245,"INCLINATION":42.9996,"RA_OF_ASC_NODE":207.3787,"ARG_OF_PERICENTER":270.8029,"MEAN_ANOMALY":89.2685,"EPHEMERIS_TYPE":0,"CLASSIFICATION_TYPE":"U","NORAD_CAT_ID":59464,"ELEMENT_SET_NO":999,"REV_AT_EPOCH":1641,"BSTAR":3.6758e-5,"MEAN_MOTION_DOT":1.232e-5,"MEAN_MOTION_DDOT":0},{"OBJECT_NAME":"STARLINK-31621","OBJECT_ID":"2024-068L","EPOCH":"2024-07-18T04:07:48.366912","MEAN_MOTION":15.40682503,"ECCENTRICITY":0.0001375,"INCLINATION":43.0014,"RA_OF_ASC_NODE":203.7039,"ARG_OF_PERICENTER":277.277,"MEAN_ANOMALY":82.793,"EPHEMERIS_TYPE":0,"CLASSIFICATION_TYPE":"U","NORAD_CAT_ID":59465,"ELEMENT_SET_NO":999,"REV_AT_EPOCH":1655,"BSTAR":-6.3238e-5,"MEAN_MOTION_DOT":-2.942e-5,"MEAN_MOTION_DDOT":0},{"OBJECT_NAME":"STARLINK-31462","OBJECT_ID":"2024-068M","EPOCH":"2024-07-18T03:51:41.353056","MEAN_MOTION":15.40702091,"ECCENTRICITY":0.0001398,"INCLINATION":42.9984,"RA_OF_ASC_NODE":203.5908,"ARG_OF_PERICENTER":258.7779,"MEAN_ANOMALY":101.292,"EPHEMERIS_TYPE":0,"CLASSIFICATION_TYPE":"U","NORAD_CAT_ID":59466,"ELEMENT_SET_NO":999,"REV_AT_EPOCH":1656,"BSTAR":0.00067359,"MEAN_MOTION_DOT":0.00027939,"MEAN_MOTION_DDOT":0},{"OBJECT_NAME":"STARLINK-31592","OBJECT_ID":"2024-068N","EPOCH":"2024-07-17T08:10:20.905536","MEAN_MOTION":15.40690675,"ECCENTRICITY":0.0001315,"INCLINATION":42.9994,"RA_OF_ASC_NODE":208.6347,"ARG_OF_PERICENTER":263.8323,"MEAN_ANOMALY":96.2384,"EPHEMERIS_TYPE":0,"CLASSIFICATION_TYPE":"U","NORAD_CAT_ID":59467,"ELEMENT_SET_NO":999,"REV_AT_EPOCH":1643,"BSTAR":1.643e-5,"MEAN_MOTION_DOT":3.83e-6,"MEAN_MOTION_DDOT":0},{"OBJECT_NAME":"STARLINK-31267","OBJECT_ID":"2024-068P","EPOCH":"2024-07-17T02:19:30.572832","MEAN_MOTION":15.40693272,"ECCENTRICITY":0.0001493,"INCLINATION":42.9981,"RA_OF_ASC_NODE":210.2473,"ARG_OF_PERICENTER":262.3507,"MEAN_ANOMALY":97.7179,"EPHEMERIS_TYPE":0,"CLASSIFICATION_TYPE":"U","NORAD_CAT_ID":59468,"ELEMENT_SET_NO":999,"REV_AT_EPOCH":1639,"BSTAR":7.0782e-5,"MEAN_MOTION_DOT":2.654e-5,"MEAN_MOTION_DDOT":0},{"OBJECT_NAME":"STARLINK-31381","OBJECT_ID":"2024-068Q","EPOCH":"2024-07-18T03:09:56.918592","MEAN_MOTION":15.40683682,"ECCENTRICITY":0.0001331,"INCLINATION":42.9989,"RA_OF_ASC_NODE":204.2565,"ARG_OF_PERICENTER":261.3164,"MEAN_ANOMALY":98.7541,"EPHEMERIS_TYPE":0,"CLASSIFICATION_TYPE":"U","NORAD_CAT_ID":59469,"ELEMENT_SET_NO":999,"REV_AT_EPOCH":1655,"BSTAR":-7.2409e-5,"MEAN_MOTION_DOT":-3.325e-5,"MEAN_MOTION_DDOT":0},{"OBJECT_NAME":"STARLINK-31546","OBJECT_ID":"2024-068R","EPOCH":"2024-07-18T00:22:35.260896","MEAN_MOTION":15.40702044,"ECCENTRICITY":0.0001339,"INCLINATION":42.9996,"RA_OF_ASC_NODE":205.106,"ARG_OF_PERICENTER":266.2243,"MEAN_ANOMALY":93.846,"EPHEMERIS_TYPE":0,"CLASSIFICATION_TYPE":"U","NORAD_CAT_ID":59470,"ELEMENT_SET_NO":999,"REV_AT_EPOCH":1653,"BSTAR":6.2029e-5,"MEAN_MOTION_DOT":2.289e-5,"MEAN_MOTION_DDOT":0},{"OBJECT_NAME":"STARLINK-31575","OBJECT_ID":"2024-068S","EPOCH":"2024-07-18T00:12:55.757952","MEAN_MOTION":15.40663247,"ECCENTRICITY":0.0001027,"INCLINATION":42.9988,"RA_OF_ASC_NODE":205.0552,"ARG_OF_PERICENTER":269.5436,"MEAN_ANOMALY":90.5303,"EPHEMERIS_TYPE":0,"CLASSIFICATION_TYPE":"U","NORAD_CAT_ID":59471,"ELEMENT_SET_NO":999,"REV_AT_EPOCH":1653,"BSTAR":0.00071294,"MEAN_MOTION_DOT":0.00029556,"MEAN_MOTION_DDOT":0},{"OBJECT_NAME":"STARLINK-31375","OBJECT_ID":"2024-068T","EPOCH":"2024-07-18T03:48:27.866304","MEAN_MOTION":15.40713081,"ECCENTRICITY":0.0001467,"INCLINATION":42.9987,"RA_OF_ASC_NODE":203.5889,"ARG_OF_PERICENTER":257.2635,"MEAN_ANOMALY":102.8058,"EPHEMERIS_TYPE":0,"CLASSIFICATION_TYPE":"U","NORAD_CAT_ID":59472,"ELEMENT_SET_NO":999,"REV_AT_EPOCH":1656,"BSTAR":0.00088045,"MEAN_MOTION_DOT":0.00036668,"MEAN_MOTION_DDOT":0},{"OBJECT_NAME":"STARLINK-31610","OBJECT_ID":"2024-068U","EPOCH":"2024-07-17T09:21:08.049600","MEAN_MOTION":15.40681236,"ECCENTRICITY":0.000118,"INCLINATION":43.0004,"RA_OF_ASC_NODE":208.1403,"ARG_OF_PERICENTER":271.0534,"MEAN_ANOMALY":89.0187,"EPHEMERIS_TYPE":0,"CLASSIFICATION_TYPE":"U","NORAD_CAT_ID":59473,"ELEMENT_SET_NO":999,"REV_AT_EPOCH":1644,"BSTAR":-8.1226e-6,"MEAN_MOTION_DOT":-6.42e-6,"MEAN_MOTION_DDOT":0}]
